     2.100          NAVIGATION                              RINEX VERSION / TYPE
fic2rin                                 06/24/2012 00:08:07 PGM / RUN BY / DATE
                                                            END OF HEADER
 4 12  6 23 10  0  0.0  .222752336413D-03  .113686837722D-10  .000000000000D+00
     .470000000000D+02  .277812500000D+02  .514950021164D-08 -.208119888302D+01
     .117532908916D-05  .100110600470D-01  .806897878647D-05  .515361505318D+04
     .554400000000D+06  .154599547386D-06 -.160979453655D+01 -.521540641785D-07
     .937277209495D+00  .204562500000D+03  .861128281427D+00 -.816891169653D-08
     .668242120681D-09  .100000000000D+01  .169300000000D+04  .000000000000D+00
     .240000000000D+01  .000000000000D+00 -.605359673500D-08  .470000000000D+02
     .547206000000D+06  .400000000000D+01
 6 12  6 23 10  0  0.0  .153072178364D-04 -.409272615798D-11  .000000000000D+00
     .270000000000D+02 -.774375000000D+02  .470055293975D-08  .304629447896D+01
    -.396557152271D-05  .737593451049D-02  .101625919342D-04  .515369455147D+04
     .554400000000D+06 -.521540641785D-07 -.271410589784D+01  .106170773506D-06
     .938643276546D+00  .168281250000D+03 -.512563458851D+00 -.802247702551D-08
     .600024993449D-10  .100000000000D+01  .169300000000D+04  .000000000000D+00
     .240000000000D+01  .000000000000D+00 -.512227416039D-08  .270000000000D+02
     .547206000000D+06  .400000000000D+01
 7 12  6 23 10  0  0.0  .934056006372D-04  .375166564481D-11  .000000000000D+00
     .270000000000D+02  .907500000000D+02  .421588989445D-08 -.357330156647D+00
     .448524951935D-05  .553964194842D-02  .577792525291D-05  .515360425568D+04
     .554400000000D+06  .141561031342D-06  .154835275550D+01  .204890966415D-07
     .975641669975D+00  .277000000000D+03 -.302660680687D+01 -.814391065514D-08
     .127148153374D-09  .100000000000D+01  .169300000000D+04  .000000000000D+00
     .240000000000D+01  .000000000000D+00 -.107102096081D-07  .270000000000D+02
     .547206000000D+06  .400000000000D+01
 8 12  6 23 10  0  0.0  .154133886099D-05  .113686837722D-12  .000000000000D+00
     .870000000000D+02  .846562500000D+02  .370193991494D-08 -.106183733424D+01
     .428035855293D-05  .123575546313D-01  .540725886822D-05  .515367191696D+04
     .554400000000D+06  .180676579475D-06  .163229997905D+01 -.257045030594D-06
     .997835389495D+00  .294656250000D+03 -.296530059590D+01 -.781746848608D-08
     .261439461432D-09  .100000000000D+01  .169300000000D+04  .000000000000D+00
     .240000000000D+01  .000000000000D+00 -.372529029846D-08  .870000000000D+02
     .547206000000D+06  .400000000000D+01
 9 12  6 23 10  0  0.0  .166997313499D-03  .261479726760D-11  .000000000000D+00
     .940000000000D+02  .834375000000D+02  .412267172583D-08 -.107244047086D+01
     .455230474472D-05  .175350976642D-01  .638514757156D-05  .515361881638D+04
     .554400000000D+06 -.296160578728D-06  .152279812505D+01  .193715095520D-06
     .984374710129D+00  .270968750000D+03  .162787142027D+01 -.820141305034D-08
     .179293182566D-09  .100000000000D+01  .169300000000D+04  .000000000000D+00
     .240000000000D+01  .000000000000D+00 -.558793544769D-08  .940000000000D+02
     .547206000000D+06  .400000000000D+01
11 12  6 23 10  0  0.0 -.274544116110D-03 -.386535248253D-11  .000000000000D+00
     .150000000000D+02  .289687500000D+02  .630561979723D-08 -.268562278628D+00
     .156462192535D-05  .130136988591D-01  .948458909988D-05  .515367795563D+04
     .554400000000D+06 -.372529029846D-07 -.188439076124D+01  .208616256714D-06
     .887887305990D+00  .161656250000D+03  .105422776251D+01 -.905323424640D-08
     .554665961207D-09  .100000000000D+01  .169300000000D+04  .000000000000D+00
     .240000000000D+01  .000000000000D+00 -.116415321827D-07  .150000000000D+02
     .547206000000D+06  .400000000000D+01
12 12  6 23 10  0  0.0  .760811381042D-04  .204636307899D-11  .000000000000D+00
     .880000000000D+02 -.567187500000D+02  .423946230491D-08 -.691747091163D+00
    -.300630927086D-05  .410023203585D-02  .298582017422D-05  .515377340508D+04
     .554400000000D+06  .147148966789D-06  .260529297586D+01 -.484287738800D-07
     .980258841315D+00  .333281250000D+03  .877408553988D-01 -.816498296146D-08
    -.197865384745D-09  .100000000000D+01  .169300000000D+04  .000000000000D+00
     .240000000000D+01  .000000000000D+00 -.121071934700D-07  .880000000000D+02
     .547206000000D+06  .400000000000D+01
13 12  6 23 10  0  0.0  .199182890356D-03 -.250111042988D-11  .000000000000D+00
     .260000000000D+02  .485625000000D+02  .373694137289D-08  .186666714444D+01
     .242888927460D-05  .498353398871D-02  .108256936073D-04  .515365988159D+04
     .554400000000D+06  .558793544769D-07  .578144948435D+00 -.782310962677D-07
     .985778592149D+00  .177281250000D+03  .202721071493D+01 -.754245703075D-08
    -.406445501515D-09  .100000000000D+01  .169300000000D+04  .000000000000D+00
     .240000000000D+01  .000000000000D+00 -.111758708954D-07  .260000000000D+02
     .547206000000D+06  .400000000000D+01
14 12  6 23 10  0  0.0  .205726828426D-03  .795807864051D-12  .000000000000D+00
     .750000000000D+02  .387812500000D+02  .388087593977D-08  .208608591886D+01
     .187009572983D-05  .644133717287D-02  .106208026409D-04  .515361008072D+04
     .554400000000D+06 -.502914190292D-07  .551270663482D+00 -.119209289551D-06
     .978612787836D+00  .184343750000D+03 -.207260026309D+01 -.760281668783D-08
    -.315370279295D-09  .100000000000D+01  .169300000000D+04  .000000000000D+00
     .240000000000D+01  .000000000000D+00 -.884756445885D-08  .750000000000D+02
     .547206000000D+06  .400000000000D+01
16 12  6 23 10  0  0.0 -.239043962210D-03 -.113686837722D-11  .000000000000D+00
     .760000000000D+02 -.728437500000D+02  .415588739511D-08 -.296222872248D+01
    -.374577939510D-05  .662930915132D-02  .350549817085D-05  .515369354820D+04
     .554400000000D+06 -.633299350739D-07  .262346025475D+01 -.242143869400D-07
     .981092811414D+00  .324437500000D+03  .481934515650D-02 -.806033574534D-08
    -.177150236161D-09  .100000000000D+01  .169300000000D+04  .000000000000D+00
     .240000000000D+01  .000000000000D+00 -.977888703346D-08  .760000000000D+02
     .547206000000D+06  .400000000000D+01
17 12  6 23 10  0  0.0  .118916388601D-03 -.295585778076D-11  .000000000000D+00
     .420000000000D+02 -.900000000000D+02  .409052752975D-08  .237747490118D+01
    -.451132655144D-05  .738513900433D-02  .111367553473D-04  .515370690918D+04
     .554400000000D+06 -.260770320892D-07 -.261998344707D+01 -.165775418282D-06
     .963393774566D+00  .163468750000D+03 -.229339804846D+01 -.774139388870D-08
     .122147945095D-09  .100000000000D+01  .169300000000D+04  .000000000000D+00
     .240000000000D+01  .000000000000D+00 -.107102096081D-07  .420000000000D+02
     .547206000000D+06  .400000000000D+01
18 12  6 23 10  0  0.0  .201883260161D-03  .181898940355D-11  .000000000000D+00
     .230000000000D+02 -.180625000000D+02  .563630620335D-08 -.243217107188D+01
    -.101514160633D-05  .134845969733D-01  .514835119247D-05  .515369955444D+04
     .554400000000D+06  .292435288429D-06 -.553051167910D+00 -.596046447754D-07
     .929455941811D+00  .260468750000D+03 -.216840655013D+01 -.846928135099D-08
    -.120719314158D-09  .100000000000D+01  .169300000000D+04  .000000000000D+00
     .240000000000D+01  .000000000000D+00 -.107102096081D-07  .230000000000D+02
     .547206000000D+06  .400000000000D+01
19 12  6 23 10  0  0.0 -.277947168797D-03 -.363797880709D-11  .000000000000D+00
     .540000000000D+02 -.664062500000D+02  .422446168007D-08  .155027248876D+01
    -.340677797794D-05  .845555157866D-02  .111833214760D-04  .515359811020D+04
     .554400000000D+06 -.149011611938D-07 -.256705016579D+01  .104308128357D-06
     .960723915424D+00  .163625000000D+03  .184136783270D+00 -.787604235449D-08
     .164292557730D-10  .100000000000D+01  .169300000000D+04  .000000000000D+00
     .240000000000D+01  .000000000000D+00 -.144354999065D-07  .540000000000D+02
     .547206000000D+06  .400000000000D+01
20 12  6 23 10  0  0.0  .641206279397D-04  .341060513165D-12  .000000000000D+00
     .600000000000D+02 -.925000000000D+01  .572845289877D-08 -.205778893144D+01
    -.426545739174D-06  .492088566534D-02  .531785190105D-05  .515367323875D+04
     .554400000000D+06  .726431608200D-07 -.606754663847D+00  .242143869400D-07
     .929899603902D+00  .260593750000D+03  .128936042320D+01 -.853964142463D-08
    -.173935816553D-09  .100000000000D+01  .169300000000D+04  .000000000000D+00
     .240000000000D+01  .000000000000D+00 -.791624188423D-08  .600000000000D+02
     .547206000000D+06  .400000000000D+01
21 12  6 23 10  0  0.0 -.232039950788D-03 -.238742359215D-11  .000000000000D+00
     .220000000000D+02  .362187500000D+02  .528879172798D-08 -.133955883325D+01
     .211782753468D-05  .192271108972D-01  .716373324394D-05  .515359806252D+04
     .554400000000D+06  .417232513428D-06 -.160398320274D+01  .119209289551D-06
     .930980899320D+00  .218750000000D+03 -.223993889202D+01 -.831856078716D-08
     .577166898461D-09  .100000000000D+01  .169300000000D+04  .000000000000D+00
     .240000000000D+01  .000000000000D+00 -.111758708954D-07  .220000000000D+02
     .547206000000D+06  .400000000000D+01
22 12  6 23 10  0  0.0  .144769903272D-03  .227373675443D-12  .000000000000D+00
     .470000000000D+02 -.145312500000D+02  .570630911925D-08  .304727649783D+01
    -.834465026855D-06  .622174714226D-02  .548921525478D-05  .515367264748D+04
     .554400000000D+06  .633299350739D-07 -.549728032459D+00 -.165775418282D-06
     .927180302518D+00  .256781250000D+03 -.201420543757D+01 -.854464163291D-08
    -.289654922433D-09  .100000000000D+01  .169300000000D+04  .000000000000D+00
     .240000000000D+01  .000000000000D+00 -.167638063431D-07  .470000000000D+02
     .547206000000D+06  .400000000000D+01
